{
    "links": {
        "self": "http://www.neowsapp.com/rest/v1/neo/3775116?api_key=iIulBulltgU6a56xZRHN4H3l9WmuAYTsLGpBGhQ2"
    },
    "id": "3775116",
    "neo_reference_id": "3775116",
    "name": "(2017 KK32)",
    "designation": "2017 KK32",
    "nasa_jpl_url": "http://ssd.jpl.nasa.gov/sbdb.cgi?sstr=3775116",
    "absolute_magnitude_h": 26.8,
    "estimated_diameter": {
        "kilometers": {
            "estimated_diameter_min": 0.0116025908,
            "estimated_diameter_max": 0.0259441818
        },
        "meters": {
            "estimated_diameter_min": 11.6025908209,
            "estimated_diameter_max": 25.9441817907
        },
        "miles": {
            "estimated_diameter_min": 0.0072095135,
            "estimated_diameter_max": 0.0161209622
        },
        "feet": {
            "estimated_diameter_min": 38.066244069,
            "estimated_diameter_max": 85.1187093863
        }
    },
    "is_potentially_hazardous_asteroid": false,
    "close_approach_data": [
        {
            "close_approach_date": "2017-05-26",
            "close_approach_date_full": "2017-May-26 10:02",
            "epoch_date_close_approach": 1495792920000,
            "relative_velocity": {
                "kilometers_per_second": "11.2695034257",
                "kilometers_per_hour": "40570.2123326978",
                "miles_per_hour": "25208.7522130588"
            },
            "miss_distance": {
                "astronomical": "0.0226953848",
                "lunar": "8.8285046872",
                "kilometers": "3395181.224910376",
                "miles": "2109667.7865641488"
            },
            "orbiting_body": "Earth"
        },
        {
            "close_approach_date": "2023-06-11",
            "close_approach_date_full": "2023-Jun-11 18:27",
            "epoch_date_close_approach": 1686508020000,
            "relative_velocity": {
                "kilometers_per_second": "9.7532733021",
                "kilometers_per_hour": "35111.7838876349",
                "miles_per_hour": "21817.097049514"
            },
            "miss_distance": {
                "astronomical": "1.492735967",
                "lunar": "580.674291163",
                "kilometers": "223310121.13559029",
                "miles": "138758474.957674402"
            },
            "orbiting_body": "Juptr"
        }
    ],
    "orbital_data": {
        "orbit_id": "5",
        "orbit_determination_date": "2017-06-06 06:20:37",
        "first_observation_date": "2017-05-29",
        "last_observation_date": "2017-06-03",
        "data_arc_in_days": 5,
        "observations_used": 35,
        "orbit_uncertainty": "8",
        "minimum_orbit_intersection": ".000585248",
        "jupiter_tisserand_invariant": "2.973",
        "epoch_osculation": "2457904.5",
        "eccentricity": ".6548820521148673",
        "semi_major_axis": "2.785906667022479",
        "inclination": "1.683768227907277",
        "ascending_node_longitude": "241.2698163426872",
        "orbital_period": "1698.432418997587",
        "perihelion_distance": ".9614663919223079",
        "perihelion_argument": "329.792380880763",
        "aphelion_distance": "4.610346942122651",
        "perihelion_time": "2457874.208889690268",
        "mean_anomaly": "6.420508457993002",
        "mean_motion": ".2119601557137444",
        "equinox": "J2000",
        "orbit_class": {
            "orbit_class_type": "APO",
            "orbit_class_description": "Near-Earth asteroid orbits which cross the Earth’s orbit similar to that of 1862 Apollo",
            "orbit_class_range": "a (semi-major axis) > 1.0 AU; q (perihelion) < 1.017 AU"
        }
    },
    "is_sentry_object": false
}